{
  "type": "FeatureCollection",
  "features": [
    {
      "type": "Feature",
      "properties": {
        "norad_id": 39227,
        "name": "ARIRANG-5 (KOMPSAT-5)",
        "group": "resource",
        "lat": -82.365207163126,
        "lon": -87.06094518218569,
        "alt_km": 561.6643002231976,
        "timestamp": "2025-12-21T05:44:51.232802+00:00",
        "meta_object_name": "ARIRANG-5 (KOMPSAT-5)",
        "meta_object_id": "2013-042A",
        "meta_epoch": "2025-12-20T22:10:06.006432",
        "meta_mean_motion": 15.04541477,
        "meta_eccentricity": 0.00034383,
        "meta_inclination": 97.6154,
        "meta_ra_of_asc_node": 179.1104,
        "meta_arg_of_pericenter": 36.2736,
        "meta_mean_anomaly": 323.8722,
        "meta_ephemeris_type": 0,
        "meta_classification_type": "U",
        "meta_norad_cat_id": 39227,
        "meta_element_set_no": 999,
        "meta_rev_at_epoch": 67705,
        "meta_bstar": 0.00015868078,
        "meta_mean_motion_dot": 2.163e-05,
        "meta_mean_motion_ddot": 0,
        "tle_line1": "1 39227U 13042A   25354.92368063  .00002163  00000+0  15868-3 0  9991",
        "tle_line2": "2 39227  97.6154 179.1104 0003438  36.2736 323.8722 15.04541477677055"
      },
      "geometry": {
        "type": "Point",
        "coordinates": [
          -87.06094518218569,
          -82.365207163126
        ]
      }
    },
    {
      "type": "Feature",
      "properties": {
        "norad_id": 39418,
        "name": "SKYSAT-A",
        "group": "resource",
        "lat": 40.005215398038246,
        "lon": -128.5400992284017,
        "alt_km": 522.1385317805389,
        "timestamp": "2025-12-21T05:44:51.232812+00:00",
        "meta_object_name": "SKYSAT-A",
        "meta_object_id": "2013-066C",
        "meta_epoch": "2025-12-20T21:11:15.667872",
        "meta_mean_motion": 15.11658266,
        "meta_eccentricity": 0.00213232,
        "meta_inclination": 97.4095,
        "meta_ra_of_asc_node": 44.8439,
        "meta_arg_of_pericenter": 207.0168,
        "meta_mean_anomaly": 152.9954,
        "meta_ephemeris_type": 0,
        "meta_classification_type": "U",
        "meta_norad_cat_id": 39418,
        "meta_element_set_no": 999,
        "meta_rev_at_epoch": 66153,
        "meta_bstar": 0.00016583065,
        "meta_mean_motion_dot": 2.771e-05,
        "meta_mean_motion_ddot": 0,
        "tle_line1": "1 39418U 13066C   25354.88282023  .00002771  00000+0  16583-3 0  9995",
        "tle_line2": "2 39418  97.4095  44.8439 0021323 207.0168 152.9954 15.11658266661535"
      },
      "geometry": {
        "type": "Point",
        "coordinates": [
          -128.5400992284017,
          40.005215398038246
        ]
      }
    },
    {
      "type": "Feature",
      "properties": {
        "norad_id": 39419,
        "name": "DUBAISAT-2",
        "group": "resource",
        "lat": -2.9484549467966135,
        "lon": 164.99869355392534,
        "alt_km": 546.2899715629501,
        "timestamp": "2025-12-21T05:44:51.232822+00:00",
        "meta_object_name": "DUBAISAT-2",
        "meta_object_id": "2013-066D",
        "meta_epoch": "2025-12-20T22:34:12.848736",
        "meta_mean_motion": 15.08426596,
        "meta_eccentricity": 0.00100101,
        "meta_inclination": 97.4441,
        "meta_ra_of_asc_node": 345.0947,
        "meta_arg_of_pericenter": 289.3318,
        "meta_mean_anomaly": 70.6828,
        "meta_ephemeris_type": 0,
        "meta_classification_type": "U",
        "meta_norad_cat_id": 39419,
        "meta_element_set_no": 999,
        "meta_rev_at_epoch": 65950,
        "meta_bstar": 0.00024528902,
        "meta_mean_motion_dot": 3.76e-05,
        "meta_mean_motion_ddot": 0,
        "tle_line1": "1 39419U 13066D   25354.94042649  .00003760  00000+0  24529-3 0  9999",
        "tle_line2": "2 39419  97.4441 345.0947 0010010 289.3318  70.6828 15.08426596659507"
      },
      "geometry": {
        "type": "Point",
        "coordinates": [
          164.99869355392534,
          -2.9484549467966135
        ]
      }
    },
    {
      "type": "Feature",
      "properties": {
        "norad_id": 39574,
        "name": "GPM-CORE",
        "group": "resource",
        "lat": 8.910762506672107,
        "lon": -171.58041669813332,
        "alt_km": 436.76880627385435,
        "timestamp": "2025-12-21T05:44:51.232832+00:00",
        "meta_object_name": "GPM-CORE",
        "meta_object_id": "2014-009C",
        "meta_epoch": "2025-12-20T21:56:07.332864",
        "meta_mean_motion": 15.44580494,
        "meta_eccentricity": 0.00093375,
        "meta_inclination": 64.9718,
        "meta_ra_of_asc_node": 185.3081,
        "meta_arg_of_pericenter": 248.4407,
        "meta_mean_anomaly": 111.5739,
        "meta_ephemeris_type": 0,
        "meta_classification_type": "U",
        "meta_norad_cat_id": 39574,
        "meta_element_set_no": 999,
        "meta_rev_at_epoch": 67027,
        "meta_bstar": 0.00012456087,
        "meta_mean_motion_dot": 5.576e-05,
        "meta_mean_motion_ddot": 0,
        "tle_line1": "1 39574U 14009C   25354.91397376  .00005576  00000+0  12456-3 0  9999",
        "tle_line2": "2 39574  64.9718 185.3081 0009337 248.4407 111.5739 15.44580494670275"
      },
      "geometry": {
        "type": "Point",
        "coordinates": [
          -171.58041669813332,
          8.910762506672107
        ]
      }
    },
    {
      "type": "Feature",
      "properties": {
        "norad_id": 39634,
        "name": "SENTINEL-1A",
        "group": "resource",
        "lat": 70.54947816294741,
        "lon": -155.61033392480448,
        "alt_km": 688.098015074017,
        "timestamp": "2025-12-21T05:44:51.232842+00:00",
        "meta_object_name": "SENTINEL-1A",
        "meta_object_id": "2014-016A",
        "meta_epoch": "2025-12-20T22:40:23.293920",
        "meta_mean_motion": 14.59200345,
        "meta_eccentricity": 0.0001261,
        "meta_inclination": 98.1795,
        "meta_ra_of_asc_node": 0.0648,
        "meta_arg_of_pericenter": 86.3368,
        "meta_mean_anomaly": 273.7976,
        "meta_ephemeris_type": 0,
        "meta_classification_type": "U",
        "meta_norad_cat_id": 39634,
        "meta_element_set_no": 999,
        "meta_rev_at_epoch": 62402,
        "meta_bstar": 1.0675039e-05,
        "meta_mean_motion_dot": 5e-08,
        "meta_mean_motion_ddot": 0,
        "tle_line1": "1 39634U 14016A   25354.94471405  .00000005  00000+0  10675-4 0  9997",
        "tle_line2": "2 39634  98.1795   0.0648 0001261  86.3368 273.7976 14.59200345624026"
      },
      "geometry": {
        "type": "Point",
        "coordinates": [
          -155.61033392480448,
          70.54947816294741
        ]
      }
    },
    {
      "type": "Feature",
      "properties": {
        "norad_id": 39731,
        "name": "KAZEOSAT 1",
        "group": "resource",
        "lat": -77.99084629644777,
        "lon": 110.5754695223721,
        "alt_km": 759.8459951151108,
        "timestamp": "2025-12-21T05:44:51.232852+00:00",
        "meta_object_name": "KAZEOSAT 1",
        "meta_object_id": "2014-024A",
        "meta_epoch": "2025-12-20T21:47:53.118816",
        "meta_mean_motion": 14.42066264,
        "meta_eccentricity": 0.00011783,
        "meta_inclination": 98.3432,
        "meta_ra_of_asc_node": 66.6326,
        "meta_arg_of_pericenter": 97.4721,
        "meta_mean_anomaly": 262.6603,
        "meta_ephemeris_type": 0,
        "meta_classification_type": "U",
        "meta_norad_cat_id": 39731,
        "meta_element_set_no": 999,
        "meta_rev_at_epoch": 61286,
        "meta_bstar": 2.4461085e-05,
        "meta_mean_motion_dot": 3.7e-07,
        "meta_mean_motion_ddot": 0,
        "tle_line1": "1 39731U 14024A   25354.90825369  .00000037  00000+0  24461-4 0  9995",
        "tle_line2": "2 39731  98.3432  66.6326 0001178  97.4721 262.6603 14.42066264612863"
      },
      "geometry": {
        "type": "Point",
        "coordinates": [
          110.5754695223721,
          -77.99084629644777
        ]
      }
    },
    {
      "type": "Feature",
      "properties": {
        "norad_id": 39766,
        "name": "ALOS-2",
        "group": "resource",
        "lat": -44.96701478350757,
        "lon": -98.03134120583131,
        "alt_km": 638.3598006187913,
        "timestamp": "2025-12-21T05:44:51.232862+00:00",
        "meta_object_name": "ALOS-2",
        "meta_object_id": "2014-029A",
        "meta_epoch": "2025-12-20T22:14:20.585760",
        "meta_mean_motion": 14.79471119,
        "meta_eccentricity": 0.00014086,
        "meta_inclination": 97.9232,
        "meta_ra_of_asc_node": 89.6565,
        "meta_arg_of_pericenter": 97.0747,
        "meta_mean_anomaly": 263.0625,
        "meta_ephemeris_type": 0,
        "meta_classification_type": "U",
        "meta_norad_cat_id": 39766,
        "meta_element_set_no": 999,
        "meta_rev_at_epoch": 62522,
        "meta_bstar": 0.00019456291,
        "meta_mean_motion_dot": 1.402e-05,
        "meta_mean_motion_ddot": 0,
        "tle_line1": "1 39766U 14029A   25354.92662715  .00001402  00000+0  19456-3 0  9998",
        "tle_line2": "2 39766  97.9232  89.6565 0001408  97.0747 263.0625 14.79471119625226"
      },
      "geometry": {
        "type": "Point",
        "coordinates": [
          -98.03134120583131,
          -44.96701478350757
        ]
      }
    }
  ]
}